$$SOE
2461302.500000000, A.D. 2026-Sep-19 00:00:00.0000, -2.157613337118710E+08, -1.431659204660230E+08, 6.321976183401106E+07,
2461309.500000000, A.D. 2026-Sep-26 00:00:00.0000, -2.117959331359038E+08, -1.551619458447713E+08, 6.372646335987037E+07,
2461316.500000000, A.D. 2026-Oct-03 00:00:00.0000, -2.073090682757397E+08, -1.667761799803347E+08, 6.407628771385454E+07,
2461323.500000000, A.D. 2026-Oct-10 00:00:00.0000, -2.023311163507051E+08, -1.779955661744086E+08, 6.427434659722841E+07,
2461330.500000000, A.D. 2026-Oct-17 00:00:00.0000, -1.968911327273352E+08, -1.888087042728684E+08, 6.432565347270998E+07,
2461337.500000000, A.D. 2026-Oct-24 00:00:00.0000, -1.910169132212943E+08, -1.992056363214931E+08, 6.423511263306485E+07,
2461344.500000000, A.D. 2026-Oct-31 00:00:00.0000, -1.847350610792614E+08, -2.091776592386828E+08, 6.400751234767514E+07,
2461351.500000000, A.D. 2026-Nov-07 00:00:00.0000, -1.780710561185797E+08, -2.187171611634048E+08, 6.364752121472976E+07,
2461358.500000000, A.D. 2026-Nov-14 00:00:00.0000, -1.710493242111011E+08, -2.278174776731537E+08, 6.315968708981763E+07,
2461365.500000000, A.D. 2026-Nov-21 00:00:00.0000, -1.636933077515539E+08, -2.364727646042949E+08, 6.254843826299331E+07,
2461372.500000000, A.D. 2026-Nov-28 00:00:00.0000, -1.560255372776566E+08, -2.446778882083380E+08, 6.181808628978808E+07,
2461379.500000000, A.D. 2026-Dec-05 00:00:00.0000, -1.480677000575586E+08, -2.524283313127345E+08, 6.097282974197052E+07,
2461386.500000000, A.D. 2026-Dec-12 00:00:00.0000, -1.398407051188654E+08, -2.597201106399080E+08, 6.001675884221765E+07,
2461393.500000000, A.D. 2026-Dec-19 00:00:00.0000, -1.313647463975027E+08, -2.665497037641485E+08, 5.895386093882930E+07,
2461400.500000000, A.D. 2026-Dec-26 00:00:00.0000, -1.226593640535499E+08, -2.729139852579100E+08, 5.778802659130421E+07,
2461407.500000000, A.D. 2027-Jan-02 00:00:00.0000, -1.137435036671513E+08, -2.788101710781800E+08, 5.652305609220327E+07,
2461414.500000000, A.D. 2027-Jan-09 00:00:00.0000, -1.046355732495786E+08, -2.842357701913486E+08, 5.516266631500361E+07,
2461421.500000000, A.D. 2027-Jan-16 00:00:00.0000, -9.535349813632397E+07, -2.891885425861445E+08, 5.371049781235756E+07,
2461428.500000000, A.D. 2027-Jan-23 00:00:00.0000, -8.591477385621832E+07, -2.936664629911912E+08, 5.217012210597263E+07,
2461435.500000000, A.D. 2027-Jan-30 00:00:00.0000, -7.633651695365594E+07, -2.976676897243206E+08, 5.054504911189295E+07,
2461442.500000000, A.D. 2027-Feb-06 00:00:00.0000, -6.663551352020198E+07, -3.011905378046568E+08, 4.883873466846253E+07,
2461449.500000000, A.D. 2027-Feb-13 00:00:00.0000, -5.682826608831861E+07, -3.042334546603611E+08, 4.705458829906279E+07,
2461456.500000000, A.D. 2027-Feb-20 00:00:00.0000, -4.693104145045330E+07, -3.067949988471876E+08, 4.519598136166817E+07,
2461463.500000000, A.D. 2027-Feb-27 00:00:00.0000, -3.695991821058584E+07, -3.088738246830280E+08, 4.326625520356187E+07,
2461470.500000000, A.D. 2027-Mar-06 00:00:00.0000, -2.693083125894461E+07, -3.104686706321405E+08, 4.126872921999206E+07,
2461477.500000000, A.D. 2027-Mar-13 00:00:00.0000, -1.685961498669862E+07, -3.115783491994312E+08, 3.920670915645581E+07,
2461484.500000000, A.D. 2027-Mar-20 00:00:00.0000, -6.762046592159690E+06, -3.122017390221564E+08, 3.708349571930327E+07,
2461491.500000000, A.D. 2027-Mar-27 00:00:00.0000, 3.346110500200699E+06, -3.123377795979379E+08, 3.490239346308751E+07,
2461498.500000000, A.D. 2027-Apr-03 00:00:00.0000, 1.344906309379248E+07, -3.119854686244122E+08, 3.266671996713787E+07,
2461505.500000000, A.D. 2027-Apr-10 00:00:00.0000, 2.353094440210765E+07, -3.111438619036753E+08, 3.037981533964513E+07,
2461512.500000000, A.D. 2027-Apr-17 00:00:00.0000, 3.357576977830948E+07, -3.098120758641368E+08, 2.804505209932829E+07,
2461519.500000000, A.D. 2027-Apr-24 00:00:00.0000, 4.356739185725082E+07, -3.079892928614923E+08, 2.566584548607658E+07,
2461526.500000000, A.D. 2027-May-01 00:00:00.0000, 5.348945517971185E+07, -3.056747693779413E+08, 2.324566424441686E+07,
2461533.500000000, A.D. 2027-May-08 00:00:00.0000, 6.332535036926167E+07, -3.028678465582932E+08, 2.078804198425220E+07,
2461540.500000000, A.D. 2027-May-15 00:00:00.0000, 7.305816612864238E+07, -2.995679623619958E+08, 1.829658940929060E+07,
2461547.500000000, A.D. 2027-May-22 00:00:00.0000, 8.267063725935626E+07, -2.957746682097718E+08, 1.577500742600633E+07,
2461554.500000000, A.D. 2027-May-29 00:00:00.0000, 9.214509183368951E+07, -2.914876519485738E+08, 1.322710079483646E+07,
2461561.500000000, A.D. 2027-Jun-05 00:00:00.0000, 1.014633981819728E+08, -2.867067644405270E+08, 1.065679259750195E+07,
2461568.500000000, A.D. 2027-Jun-12 00:00:00.0000, 1.106069094704234E+08, -2.814320498689702E+08, 8.068139847886518E+06,
2461575.500000000, A.D. 2027-Jun-19 00:00:00.0000, 1.195564053323566E+08, -2.756637813179909E+08, 5.465350316981986E+06,
2461582.500000000, A.D. 2027-Jun-26 00:00:00.0000, 1.282920306446328E+08, -2.694025026202159E+08, 2.852800650212899E+06,
2461589.500000000, A.D. 2027-Jul-03 00:00:00.0000, 1.367932314206556E+08, -2.626490773275979E+08, 2.350558993954360E+05,
2461596.500000000, A.D. 2027-Jul-10 00:00:00.0000, 1.450386877327168E+08, -2.554047458067679E+08, -2.383109392456204E+06,
2461603.500000000, A.D. 2027-Jul-17 00:00:00.0000, 1.530062436289184E+08, -2.476711916740988E+08, -4.996688413509190E+06,
2461610.500000000, A.D. 2027-Jul-24 00:00:00.0000, 1.606728342071151E+08, -2.394506190018553E+08, -7.600417481106728E+06,
2461617.500000000, A.D. 2027-Jul-31 00:00:00.0000, 1.680144103661026E+08, -2.307458416526040E+08, -1.018874947973175E+07,
2461624.500000000, A.D. 2027-Aug-07 00:00:00.0000, 1.750058612769668E+08, -2.215603854307679E+08, -1.275582507288137E+07,
2461631.500000000, A.D. 2027-Aug-14 00:00:00.0000, 1.816209327071537E+08, -2.118986054163052E+08, -1.529544135100816E+07,
2461638.500000000, A.D. 2027-Aug-21 00:00:00.0000, 1.878321425163723E+08, -2.017658242679535E+08, -1.780101811472878E+07,
2461645.500000000, A.D. 2027-Aug-28 00:00:00.0000, 1.936106978127601E+08, -1.911684930874095E+08, -2.026556190825301E+07,
2461652.500000000, A.D. 2027-Sep-04 00:00:00.0000, 1.989264140946113E+08, -1.801143755597556E+08, -2.268162744251691E+07,
2461659.500000000, A.D. 2027-Sep-11 00:00:00.0000, 2.037476370527079E+08, -1.686127596941703E+08, -2.504127636666356E+07,
2461666.500000000, A.D. 2027-Sep-18 00:00:00.0000, 2.080411699641454E+08, -1.566747019292069E+08, -2.733603359780879E+07,
2461673.500000000, A.D. 2027-Sep-25 00:00:00.0000, 2.117722106487700E+08, -1.443133082413651E+08, -2.955684153584625E+07,
2461680.500000000, A.D. 2027-Oct-02 00:00:00.0000, 2.149043030212945E+08, -1.315440572092384E+08, -3.169401268159533E+07,
2461687.500000000, A.D. 2027-Oct-09 00:00:00.0000, 2.173993097642514E+08, -1.183851703629583E+08, -3.373718146880770E+07,
2461694.500000000, A.D. 2027-Oct-16 00:00:00.0000, 2.192174146213317E+08, -1.048580353930494E+08, -3.567525652648804E+07,
2461701.500000000, A.D. 2027-Oct-23 00:00:00.0000, 2.203171654030052E+08, -9.098768765968522E+07, -3.749637513029000E+07,
2461708.500000000, A.D. 2027-Oct-30 00:00:00.0000, 2.206555718734470E+08, -7.680335430796224E+07, -3.918786225838695E+07,
2461715.500000000, A.D. 2027-Nov-06 00:00:00.0000, 2.201882747311840E+08, -6.233906363214016E+07, -4.073619739456654E+07,
2461722.500000000, A.D. 2027-Nov-13 00:00:00.0000, 2.188698052361326E+08, -4.763432341843329E+07, -4.212699356173799E+07,
2461729.500000000, A.D. 2027-Nov-20 00:00:00.0000, 2.166539646471046E+08, -3.273486855895992E+07, -4.334499495470084E+07,
2461736.500000000, A.D. 2027-Nov-27 00:00:00.0000, 2.134943565064620E+08, -1.769346761189622E+07, -4.437410074123850E+07,
2461743.500000000, A.D. 2027-Dec-04 00:00:00.0000, 2.093451063486646E+08, -2.570772005980078E+06, -4.519742447562969E+07,
2461750.500000000, A.D. 2027-Dec-11 00:00:00.0000, 2.041618093692034E+08, 1.256381788090032E+07, -4.579740112738863E+07,
2461757.500000000, A.D. 2027-Dec-18 00:00:00.0000, 1.979027500652882E+08, 2.763131156671867E+07, -4.615595608648492E+07,
2461764.500000000, A.D. 2027-Dec-25 00:00:00.0000, 1.905304367984424E+08, 4.254237437029976E+07, -4.625475255024273E+07,
2461771.500000000, A.D. 2028-Jan-01 00:00:00.0000, 1.820134871121636E+08, 5.719674716204901E+07, -4.607553498695657E+07,
$$EOE